IRIDIUM 116             
1 43072U 17083C   24266.83313360  .00000243  00000+0  79753-4 0  9995
2 43072  86.3973 226.2338 0002304  88.8456 271.3004 14.34214707353537
IRIDIUM 130             
1 43073U 17083D   24266.59211310  .00000721  00000+0  25024-3 0  9993
2 43073  86.3981 226.5482 0002248  91.0330 269.1123 14.34215105353444
IRIDIUM 151             
1 43074U 17083E   24266.77604849  .00000407  00000+0  13817-3 0  9995
2 43074  86.3976 226.3011 0002408  81.9950 278.1518 14.34215651353498
IRIDIUM 134             
1 43075U 17083F   24266.95364625  .00000087  00000+0  24160-4 0  9999
2 43075  86.3979 226.2265 0002212  90.6311 269.5139 14.34214440353480
IRIDIUM 141             
1 43077U 17083H   24266.95999738  .00000678  00000+0  23520-3 0  9994
2 43077  86.3975 226.1703 0002226  84.2717 275.8733 14.34215486353557
IRIDIUM 153             
1 43078U 17083J   24266.35402037  .00000721  00000+0  25033-3 0  9990
2 43078  86.4037 194.9382 0001960  68.9954 291.1451 14.34215953354579
IRIDIUM 131             
1 43079U 17083K   24266.59845596  .00000682  00000+0  23635-3 0  9990
2 43079  86.3980 226.4650 0002389  84.9774 275.1695 14.34216057353431
